{"type": "FeatureCollection", "features": [{"type":"Feature","geometry":{"type":"Polygon","coordinates":[[[-74.02,40.76],[-74.02,40.775],[-74.01,40.775],[-74.01,40.76],[-74.02,40.76]]]},"properties":{"zone_id":150,"zone_name":"Grid Zone 150","demand_accounts":42,"fleet_present":2,"hub_distance_m":4184,"demand_score":0.9130434782608695,"coverage_gap_score":0.8821421041534894,"market_score":0.0,"saturation_score":0.6666666666666667,"final_score":74.22}},
{"type":"Feature","geometry":{"type":"Polygon","coordinates":[[[-74.03,40.76],[-74.03,40.775],[-74.02,40.775],[-74.02,40.76],[-74.03,40.76]]]},"properties":{"zone_id":149,"zone_name":"Grid Zone 149","demand_accounts":40,"fleet_present":3,"hub_distance_m":4743,"demand_score":0.8695652173913043,"coverage_gap_score":1.0,"market_score":0.0,"saturation_score":0.5,"final_score":74.13}},
{"type":"Feature","geometry":{"type":"Polygon","coordinates":[[[-73.92,40.745],[-73.92,40.76],[-73.91,40.76],[-73.91,40.745],[-73.92,40.745]]]},"properties":{"zone_id":148,"zone_name":"Grid Zone 148","demand_accounts":43,"fleet_present":6,"hub_distance_m":4221,"demand_score":0.9347826086956522,"coverage_gap_score":0.889943074003795,"market_score":0.0,"saturation_score":0.0,"final_score":68.76}},
{"type":"Feature","geometry":{"type":"Polygon","coordinates":[[[-73.99,40.76],[-73.99,40.775],[-73.98,40.775],[-73.98,40.76],[-73.99,40.76]]]},"properties":{"zone_id":153,"zone_name":"Grid Zone 153","demand_accounts":46,"fleet_present":3,"hub_distance_m":2371,"demand_score":1.0,"coverage_gap_score":0.4998945814885094,"market_score":0.0,"saturation_score":0.5,"final_score":65.0}},
{"type":"Feature","geometry":{"type":"Polygon","coordinates":[[[-74.0,40.745],[-74.0,40.76],[-73.99,40.76],[-73.99,40.745],[-74.0,40.745]]]},"properties":{"zone_id":140,"zone_name":"Grid Zone 140","demand_accounts":41,"fleet_present":5,"hub_distance_m":1867,"demand_score":0.8913043478260869,"coverage_gap_score":0.3936327219059667,"market_score":0.0,"saturation_score":0.16666666666666663,"final_score":53.58}},
{"type":"Feature","geometry":{"type":"Polygon","coordinates":[[[-73.97,40.76],[-73.97,40.775],[-73.96,40.775],[-73.96,40.76],[-73.97,40.76]]]},"properties":{"zone_id":155,"zone_name":"Grid Zone 155","demand_accounts":43,"fleet_present":6,"hub_distance_m":1665,"demand_score":0.9347826086956522,"coverage_gap_score":0.3510436432637571,"market_score":0.0,"saturation_score":0.0,"final_score":52.6}}]}
