{"type": "FeatureCollection", "features": [{"type":"Feature","geometry":{"type":"Polygon","coordinates":[[[-74.03,40.7],[-74.03,40.715],[-74.02,40.715],[-74.02,40.7],[-74.03,40.7]]]},"properties":{"zone_id":101,"zone_name":"Grid Zone 101","trips_total":56,"fleet_present":5,"hub_distance_m":0,"market_score":null,"final_score":null,"eligible":false}},
{"type":"Feature","geometry":{"type":"Polygon","coordinates":[[[-74.02,40.7],[-74.02,40.715],[-74.01,40.715],[-74.01,40.7],[-74.02,40.7]]]},"properties":{"zone_id":102,"zone_name":"Grid Zone 102","trips_total":46,"fleet_present":6,"hub_distance_m":845,"market_score":null,"final_score":null,"eligible":false}},
{"type":"Feature","geometry":{"type":"Polygon","coordinates":[[[-74.01,40.7],[-74.01,40.715],[-74.0,40.715],[-74.0,40.7],[-74.01,40.7]]]},"properties":{"zone_id":103,"zone_name":"Grid Zone 103","trips_total":47,"fleet_present":8,"hub_distance_m":1665,"market_score":null,"final_score":null,"eligible":false}},
{"type":"Feature","geometry":{"type":"Polygon","coordinates":[[[-74.0,40.7],[-74.0,40.715],[-73.99,40.715],[-73.99,40.7],[-74.0,40.7]]]},"properties":{"zone_id":104,"zone_name":"Grid Zone 104","trips_total":38,"fleet_present":6,"hub_distance_m":1867,"market_score":null,"final_score":null,"eligible":false}},
{"type":"Feature","geometry":{"type":"Polygon","coordinates":[[[-73.99,40.7],[-73.99,40.715],[-73.98,40.715],[-73.98,40.7],[-73.99,40.7]]]},"properties":{"zone_id":105,"zone_name":"Grid Zone 105","trips_total":48,"fleet_present":3,"hub_distance_m":2372,"market_score":0.3055,"final_score":58.62,"eligible":true}},
{"type":"Feature","geometry":{"type":"Polygon","coordinates":[[[-73.98,40.7],[-73.98,40.715],[-73.97,40.715],[-73.97,40.7],[-73.98,40.7]]]},"properties":{"zone_id":106,"zone_name":"Grid Zone 106","trips_total":40,"fleet_present":5,"hub_distance_m":3032,"market_score":null,"final_score":null,"eligible":false}},
{"type":"Feature","geometry":{"type":"Polygon","coordinates":[[[-73.97,40.7],[-73.97,40.715],[-73.96,40.715],[-73.96,40.7],[-73.97,40.7]]]},"properties":{"zone_id":107,"zone_name":"Grid Zone 107","trips_total":51,"fleet_present":5,"hub_distance_m":3734,"market_score":0.558167,"final_score":68.18,"eligible":true}},
{"type":"Feature","geometry":{"type":"Polygon","coordinates":[[[-73.96,40.7],[-73.96,40.715],[-73.95,40.715],[-73.95,40.7],[-73.96,40.7]]]},"properties":{"zone_id":108,"zone_name":"Grid Zone 108","trips_total":46,"fleet_present":8,"hub_distance_m":4185,"market_score":null,"final_score":null,"eligible":false}},
{"type":"Feature","geometry":{"type":"Polygon","coordinates":[[[-73.95,40.7],[-73.95,40.715],[-73.94,40.715],[-73.94,40.7],[-73.95,40.7]]]},"properties":{"zone_id":109,"zone_name":"Grid Zone 109","trips_total":56,"fleet_present":6,"hub_distance_m":4744,"market_score":0.210333,"final_score":70.2,"eligible":true}},
{"type":"Feature","geometry":{"type":"Polygon","coordinates":[[[-73.94,40.7],[-73.94,40.715],[-73.93,40.715],[-73.93,40.7],[-73.94,40.7]]]},"properties":{"zone_id":110,"zone_name":"Grid Zone 110","trips_total":58,"fleet_present":10,"hub_distance_m":5378,"market_score":null,"final_score":null,"eligible":false}},
{"type":"Feature","geometry":{"type":"Polygon","coordinates":[[[-73.93,40.7],[-73.93,40.715],[-73.92,40.715],[-73.92,40.7],[-73.93,40.7]]]},"properties":{"zone_id":111,"zone_name":"Grid Zone 111","trips_total":45,"fleet_present":2,"hub_distance_m":6031,"market_score":0.460833,"final_score":78.49,"eligible":true}},
{"type":"Feature","geometry":{"type":"Polygon","coordinates":[[[-73.92,40.7],[-73.92,40.715],[-73.91,40.715],[-73.91,40.7],[-73.92,40.7]]]},"properties":{"zone_id":112,"zone_name":"Grid Zone 112","trips_total":55,"fleet_present":7,"hub_distance_m":6541,"market_score":null,"final_score":null,"eligible":false}},
{"type":"Feature","geometry":{"type":"Polygon","coordinates":[[[-74.03,40.715],[-74.03,40.73],[-74.02,40.73],[-74.02,40.715],[-74.03,40.715]]]},"properties":{"zone_id":113,"zone_name":"Grid Zone 113","trips_total":46,"fleet_present":7,"hub_distance_m":1665,"market_score":null,"final_score":null,"eligible":false}},
{"type":"Feature","geometry":{"type":"Polygon","coordinates":[[[-74.02,40.715],[-74.02,40.73],[-74.01,40.73],[-74.01,40.715],[-74.02,40.715]]]},"properties":{"zone_id":114,"zone_name":"Grid Zone 114","trips_total":58,"fleet_present":4,"hub_distance_m":845,"market_score":null,"final_score":null,"eligible":false}},
{"type":"Feature","geometry":{"type":"Polygon","coordinates":[[[-74.01,40.715],[-74.01,40.73],[-74.0,40.73],[-74.0,40.715],[-74.01,40.715]]]},"properties":{"zone_id":115,"zone_name":"Grid Zone 115","trips_total":44,"fleet_present":5,"hub_distance_m":0,"market_score":null,"final_score":null,"eligible":false}},
{"type":"Feature","geometry":{"type":"Polygon","coordinates":[[[-74.0,40.715],[-74.0,40.73],[-73.99,40.73],[-73.99,40.715],[-74.0,40.715]]]},"properties":{"zone_id":116,"zone_name":"Grid Zone 116","trips_total":50,"fleet_present":8,"hub_distance_m":845,"market_score":null,"final_score":null,"eligible":false}},
{"type":"Feature","geometry":{"type":"Polygon","coordinates":[[[-73.99,40.715],[-73.99,40.73],[-73.98,40.73],[-73.98,40.715],[-73.99,40.715]]]},"properties":{"zone_id":117,"zone_name":"Grid Zone 117","trips_total":58,"fleet_present":6,"hub_distance_m":1665,"market_score":0.816,"final_score":65.52,"eligible":true}},
{"type":"Feature","geometry":{"type":"Polygon","coordinates":[[[-73.98,40.715],[-73.98,40.73],[-73.97,40.73],[-73.97,40.715],[-73.98,40.715]]]},"properties":{"zone_id":118,"zone_name":"Grid Zone 118","trips_total":49,"fleet_present":7,"hub_distance_m":1867,"market_score":null,"final_score":null,"eligible":false}},
{"type":"Feature","geometry":{"type":"Polygon","coordinates":[[[-73.97,40.715],[-73.97,40.73],[-73.96,40.73],[-73.96,40.715],[-73.97,40.715]]]},"properties":{"zone_id":119,"zone_name":"Grid Zone 119","trips_total":71,"fleet_present":7,"hub_distance_m":2372,"market_score":null,"final_score":null,"eligible":false}},
{"type":"Feature","geometry":{"type":"Polygon","coordinates":[[[-73.96,40.715],[-73.96,40.73],[-73.95,40.73],[-73.95,40.715],[-73.96,40.715]]]},"properties":{"zone_id":120,"zone_name":"Grid Zone 120","trips_total":41,"fleet_present":7,"hub_distance_m":3032,"market_score":null,"final_score":null,"eligible":false}},
{"type":"Feature","geometry":{"type":"Polygon","coordinates":[[[-73.95,40.715],[-73.95,40.73],[-73.94,40.73],[-73.94,40.715],[-73.95,40.715]]]},"properties":{"zone_id":121,"zone_name":"Grid Zone 121","trips_total":56,"fleet_present":6,"hub_distance_m":3734,"market_score":0.4,"final_score":68.02,"eligible":true}},
{"type":"Feature","geometry":{"type":"Polygon","coordinates":[[[-73.94,40.715],[-73.94,40.73],[-73.93,40.73],[-73.93,40.715],[-73.94,40.715]]]},"properties":{"zone_id":122,"zone_name":"Grid Zone 122","trips_total":53,"fleet_present":4,"hub_distance_m":4184,"market_score":0.3735,"final_score":70.87,"eligible":true}},
{"type":"Feature","geometry":{"type":"Polygon","coordinates":[[[-73.93,40.715],[-73.93,40.73],[-73.92,40.73],[-73.92,40.715],[-73.93,40.715]]]},"properties":{"zone_id":123,"zone_name":"Grid Zone 123","trips_total":38,"fleet_present":6,"hub_distance_m":4744,"market_score":null,"final_score":null,"eligible":false}},
{"type":"Feature","geometry":{"type":"Polygon","coordinates":[[[-73.92,40.715],[-73.92,40.73],[-73.91,40.73],[-73.91,40.715],[-73.92,40.715]]]},"properties":{"zone_id":124,"zone_name":"Grid Zone 124","trips_total":44,"fleet_present":5,"hub_distance_m":5378,"market_score":null,"final_score":null,"eligible":false}},
{"type":"Feature","geometry":{"type":"Polygon","coordinates":[[[-74.03,40.73],[-74.03,40.745],[-74.02,40.745],[-74.02,40.73],[-74.03,40.73]]]},"properties":{"zone_id":125,"zone_name":"Grid Zone 125","trips_total":53,"fleet_present":7,"hub_distance_m":2372,"market_score":null,"final_score":null,"eligible":false}},
{"type":"Feature","geometry":{"type":"Polygon","coordinates":[[[-74.02,40.73],[-74.02,40.745],[-74.01,40.745],[-74.01,40.73],[-74.02,40.73]]]},"properties":{"zone_id":126,"zone_name":"Grid Zone 126","trips_total":52,"fleet_present":5,"hub_distance_m":1867,"market_score":0.4225,"final_score":57.64,"eligible":true}},
{"type":"Feature","geometry":{"type":"Polygon","coordinates":[[[-74.01,40.73],[-74.01,40.745],[-74.0,40.745],[-74.0,40.73],[-74.01,40.73]]]},"properties":{"zone_id":127,"zone_name":"Grid Zone 127","trips_total":44,"fleet_present":11,"hub_distance_m":1665,"market_score":null,"final_score":null,"eligible":false}},
{"type":"Feature","geometry":{"type":"Polygon","coordinates":[[[-74.0,40.73],[-74.0,40.745],[-73.99,40.745],[-73.99,40.73],[-74.0,40.73]]]},"properties":{"zone_id":128,"zone_name":"Grid Zone 128","trips_total":48,"fleet_present":5,"hub_distance_m":844,"market_score":null,"final_score":null,"eligible":false}},
{"type":"Feature","geometry":{"type":"Polygon","coordinates":[[[-73.99,40.73],[-73.99,40.745],[-73.98,40.745],[-73.98,40.73],[-73.99,40.73]]]},"properties":{"zone_id":129,"zone_name":"Grid Zone 129","trips_total":44,"fleet_present":5,"hub_distance_m":0,"market_score":null,"final_score":null,"eligible":false}},
{"type":"Feature","geometry":{"type":"Polygon","coordinates":[[[-73.98,40.73],[-73.98,40.745],[-73.97,40.745],[-73.97,40.73],[-73.98,40.73]]]},"properties":{"zone_id":130,"zone_name":"Grid Zone 130","trips_total":36,"fleet_present":5,"hub_distance_m":844,"market_score":null,"final_score":null,"eligible":false}},
{"type":"Feature","geometry":{"type":"Polygon","coordinates":[[[-73.97,40.73],[-73.97,40.745],[-73.96,40.745],[-73.96,40.73],[-73.97,40.73]]]},"properties":{"zone_id":131,"zone_name":"Grid Zone 131","trips_total":57,"fleet_present":10,"hub_distance_m":1665,"market_score":null,"final_score":null,"eligible":false}},
{"type":"Feature","geometry":{"type":"Polygon","coordinates":[[[-73.96,40.73],[-73.96,40.745],[-73.95,40.745],[-73.95,40.73],[-73.96,40.73]]]},"properties":{"zone_id":132,"zone_name":"Grid Zone 132","trips_total":48,"fleet_present":5,"hub_distance_m":1867,"market_score":0.608,"final_score":57.32,"eligible":true}},
{"type":"Feature","geometry":{"type":"Polygon","coordinates":[[[-73.95,40.73],[-73.95,40.745],[-73.94,40.745],[-73.94,40.73],[-73.95,40.73]]]},"properties":{"zone_id":133,"zone_name":"Grid Zone 133","trips_total":46,"fleet_present":7,"hub_distance_m":2372,"market_score":null,"final_score":null,"eligible":false}},
{"type":"Feature","geometry":{"type":"Polygon","coordinates":[[[-73.94,40.73],[-73.94,40.745],[-73.93,40.745],[-73.93,40.73],[-73.94,40.73]]]},"properties":{"zone_id":134,"zone_name":"Grid Zone 134","trips_total":50,"fleet_present":9,"hub_distance_m":3031,"market_score":null,"final_score":null,"eligible":false}},
{"type":"Feature","geometry":{"type":"Polygon","coordinates":[[[-73.93,40.73],[-73.93,40.745],[-73.92,40.745],[-73.92,40.73],[-73.93,40.73]]]},"properties":{"zone_id":135,"zone_name":"Grid Zone 135","trips_total":41,"fleet_present":3,"hub_distance_m":3766,"market_score":null,"final_score":null,"eligible":false}},
{"type":"Feature","geometry":{"type":"Polygon","coordinates":[[[-73.92,40.73],[-73.92,40.745],[-73.91,40.745],[-73.91,40.73],[-73.92,40.73]]]},"properties":{"zone_id":136,"zone_name":"Grid Zone 136","trips_total":47,"fleet_present":11,"hub_distance_m":4538,"market_score":null,"final_score":null,"eligible":false}},
{"type":"Feature","geometry":{"type":"Polygon","coordinates":[[[-74.03,40.745],[-74.03,40.76],[-74.02,40.76],[-74.02,40.745],[-74.03,40.745]]]},"properties":{"zone_id":137,"zone_name":"Grid Zone 137","trips_total":44,"fleet_present":6,"hub_distance_m":3734,"market_score":null,"final_score":null,"eligible":false}},
{"type":"Feature","geometry":{"type":"Polygon","coordinates":[[[-74.02,40.745],[-74.02,40.76],[-74.01,40.76],[-74.01,40.745],[-74.02,40.745]]]},"properties":{"zone_id":138,"zone_name":"Grid Zone 138","trips_total":46,"fleet_present":12,"hub_distance_m":3031,"market_score":null,"final_score":null,"eligible":false}},
{"type":"Feature","geometry":{"type":"Polygon","coordinates":[[[-74.01,40.745],[-74.01,40.76],[-74.0,40.76],[-74.0,40.745],[-74.01,40.745]]]},"properties":{"zone_id":139,"zone_name":"Grid Zone 139","trips_total":51,"fleet_present":7,"hub_distance_m":2372,"market_score":null,"final_score":null,"eligible":false}},
{"type":"Feature","geometry":{"type":"Polygon","coordinates":[[[-74.0,40.745],[-74.0,40.76],[-73.99,40.76],[-73.99,40.745],[-74.0,40.745]]]},"properties":{"zone_id":140,"zone_name":"Grid Zone 140","trips_total":45,"fleet_present":5,"hub_distance_m":1867,"market_score":0.579833,"final_score":54.56,"eligible":true}},
{"type":"Feature","geometry":{"type":"Polygon","coordinates":[[[-73.99,40.745],[-73.99,40.76],[-73.98,40.76],[-73.98,40.745],[-73.99,40.745]]]},"properties":{"zone_id":141,"zone_name":"Grid Zone 141","trips_total":56,"fleet_present":8,"hub_distance_m":1665,"market_score":null,"final_score":null,"eligible":false}},
{"type":"Feature","geometry":{"type":"Polygon","coordinates":[[[-73.98,40.745],[-73.98,40.76],[-73.97,40.76],[-73.97,40.745],[-73.98,40.745]]]},"properties":{"zone_id":142,"zone_name":"Grid Zone 142","trips_total":48,"fleet_present":5,"hub_distance_m":844,"market_score":null,"final_score":null,"eligible":false}},
{"type":"Feature","geometry":{"type":"Polygon","coordinates":[[[-73.97,40.745],[-73.97,40.76],[-73.96,40.76],[-73.96,40.745],[-73.97,40.745]]]},"properties":{"zone_id":143,"zone_name":"Grid Zone 143","trips_total":47,"fleet_present":9,"hub_distance_m":0,"market_score":null,"final_score":null,"eligible":false}},
{"type":"Feature","geometry":{"type":"Polygon","coordinates":[[[-73.96,40.745],[-73.96,40.76],[-73.95,40.76],[-73.95,40.745],[-73.96,40.745]]]},"properties":{"zone_id":144,"zone_name":"Grid Zone 144","trips_total":39,"fleet_present":4,"hub_distance_m":844,"market_score":null,"final_score":null,"eligible":false}},
{"type":"Feature","geometry":{"type":"Polygon","coordinates":[[[-73.95,40.745],[-73.95,40.76],[-73.94,40.76],[-73.94,40.745],[-73.95,40.745]]]},"properties":{"zone_id":145,"zone_name":"Grid Zone 145","trips_total":54,"fleet_present":2,"hub_distance_m":1688,"market_score":0.809,"final_score":69.09,"eligible":true}},
{"type":"Feature","geometry":{"type":"Polygon","coordinates":[[[-73.94,40.745],[-73.94,40.76],[-73.93,40.76],[-73.93,40.745],[-73.94,40.745]]]},"properties":{"zone_id":146,"zone_name":"Grid Zone 146","trips_total":47,"fleet_present":13,"hub_distance_m":2533,"market_score":null,"final_score":null,"eligible":false}},
{"type":"Feature","geometry":{"type":"Polygon","coordinates":[[[-73.93,40.745],[-73.93,40.76],[-73.92,40.76],[-73.92,40.745],[-73.93,40.745]]]},"properties":{"zone_id":147,"zone_name":"Grid Zone 147","trips_total":56,"fleet_present":7,"hub_distance_m":3377,"market_score":null,"final_score":null,"eligible":false}},
{"type":"Feature","geometry":{"type":"Polygon","coordinates":[[[-73.92,40.745],[-73.92,40.76],[-73.91,40.76],[-73.91,40.745],[-73.92,40.745]]]},"properties":{"zone_id":148,"zone_name":"Grid Zone 148","trips_total":48,"fleet_present":6,"hub_distance_m":4221,"market_score":0.4785,"final_score":65.42,"eligible":true}},
{"type":"Feature","geometry":{"type":"Polygon","coordinates":[[[-74.03,40.76],[-74.03,40.775],[-74.02,40.775],[-74.02,40.76],[-74.03,40.76]]]},"properties":{"zone_id":149,"zone_name":"Grid Zone 149","trips_total":48,"fleet_present":3,"hub_distance_m":4743,"market_score":0.491,"final_score":73.2,"eligible":true}},
{"type":"Feature","geometry":{"type":"Polygon","coordinates":[[[-74.02,40.76],[-74.02,40.775],[-74.01,40.775],[-74.01,40.76],[-74.02,40.76]]]},"properties":{"zone_id":150,"zone_name":"Grid Zone 150","trips_total":48,"fleet_present":2,"hub_distance_m":4184,"market_score":0.4885,"final_score":72.05,"eligible":true}},
{"type":"Feature","geometry":{"type":"Polygon","coordinates":[[[-74.01,40.76],[-74.01,40.775],[-74.0,40.775],[-74.0,40.76],[-74.01,40.76]]]},"properties":{"zone_id":151,"zone_name":"Grid Zone 151","trips_total":52,"fleet_present":7,"hub_distance_m":3734,"market_score":null,"final_score":null,"eligible":false}},
{"type":"Feature","geometry":{"type":"Polygon","coordinates":[[[-74.0,40.76],[-74.0,40.775],[-73.99,40.775],[-73.99,40.76],[-74.0,40.76]]]},"properties":{"zone_id":152,"zone_name":"Grid Zone 152","trips_total":44,"fleet_present":11,"hub_distance_m":3031,"market_score":null,"final_score":null,"eligible":false}},
{"type":"Feature","geometry":{"type":"Polygon","coordinates":[[[-73.99,40.76],[-73.99,40.775],[-73.98,40.775],[-73.98,40.76],[-73.99,40.76]]]},"properties":{"zone_id":153,"zone_name":"Grid Zone 153","trips_total":42,"fleet_present":3,"hub_distance_m":2371,"market_score":null,"final_score":null,"eligible":false}},
{"type":"Feature","geometry":{"type":"Polygon","coordinates":[[[-73.98,40.76],[-73.98,40.775],[-73.97,40.775],[-73.97,40.76],[-73.98,40.76]]]},"properties":{"zone_id":154,"zone_name":"Grid Zone 154","trips_total":56,"fleet_present":9,"hub_distance_m":1867,"market_score":null,"final_score":null,"eligible":false}},
{"type":"Feature","geometry":{"type":"Polygon","coordinates":[[[-73.97,40.76],[-73.97,40.775],[-73.96,40.775],[-73.96,40.76],[-73.97,40.76]]]},"properties":{"zone_id":155,"zone_name":"Grid Zone 155","trips_total":46,"fleet_present":6,"hub_distance_m":1665,"market_score":0.531833,"final_score":51.95,"eligible":true}},
{"type":"Feature","geometry":{"type":"Polygon","coordinates":[[[-73.96,40.76],[-73.96,40.775],[-73.95,40.775],[-73.95,40.76],[-73.96,40.76]]]},"properties":{"zone_id":156,"zone_name":"Grid Zone 156","trips_total":44,"fleet_present":10,"hub_distance_m":1867,"market_score":null,"final_score":null,"eligible":false}},
{"type":"Feature","geometry":{"type":"Polygon","coordinates":[[[-73.95,40.76],[-73.95,40.775],[-73.94,40.775],[-73.94,40.76],[-73.95,40.76]]]},"properties":{"zone_id":157,"zone_name":"Grid Zone 157","trips_total":49,"fleet_present":7,"hub_distance_m":2371,"market_score":null,"final_score":null,"eligible":false}},
{"type":"Feature","geometry":{"type":"Polygon","coordinates":[[[-73.94,40.76],[-73.94,40.775],[-73.93,40.775],[-73.93,40.76],[-73.94,40.76]]]},"properties":{"zone_id":158,"zone_name":"Grid Zone 158","trips_total":42,"fleet_present":6,"hub_distance_m":3031,"market_score":null,"final_score":null,"eligible":false}},
{"type":"Feature","geometry":{"type":"Polygon","coordinates":[[[-73.93,40.76],[-73.93,40.775],[-73.92,40.775],[-73.92,40.76],[-73.93,40.76]]]},"properties":{"zone_id":159,"zone_name":"Grid Zone 159","trips_total":57,"fleet_present":7,"hub_distance_m":3765,"market_score":null,"final_score":null,"eligible":false}},
{"type":"Feature","geometry":{"type":"Polygon","coordinates":[[[-73.92,40.76],[-73.92,40.775],[-73.91,40.775],[-73.91,40.76],[-73.92,40.76]]]},"properties":{"zone_id":160,"zone_name":"Grid Zone 160","trips_total":48,"fleet_present":8,"hub_distance_m":4537,"market_score":null,"final_score":null,"eligible":false}}]}
